{
  "norad_id": 40024,
  "name": "NANOSATC-BR1",
  "history": [
    {
      "epoch": "2026-03-28T15:22:10.989408Z",
      "apogee_km": 483.0823510640157,
      "perigee_km": 475.5514951656505,
      "latitude_deg": 1.2082320579295268e-06,
      "longitude_deg": 56.42016286265389,
      "height_km": 483.2924534184829,
      "semi_major_axis_km": 6857.453923114833,
      "eccentricity": 0.0005491,
      "inclination_deg": 98.082,
      "raan_deg": 113.0239,
      "arg_perigee_deg": 103.878,
      "mean_anomaly_deg": 256.3069,
      "mean_motion_rev_day": 15.28827249
    },
    {
      "epoch": "2026-03-29T00:47:40.593408Z",
      "apogee_km": 483.0256353801633,
      "perigee_km": 475.5044368269646,
      "latitude_deg": -4.381098472859956e-05,
      "longitude_deg": -84.91404738188905,
      "height_km": 483.1833378139566,
      "semi_major_axis_km": 6857.402036103564,
      "eccentricity": 0.0005484,
      "inclination_deg": 98.0818,
      "raan_deg": 113.4501,
      "arg_perigee_deg": 102.9997,
      "mean_anomaly_deg": 257.1853,
      "mean_motion_rev_day": 15.28844601
    },
    {
      "epoch": "2026-03-30T00:21:22.699584Z",
      "apogee_km": 482.8464778917032,
      "perigee_km": 475.37345015031406,
      "latitude_deg": -5.040555799146361e-05,
      "longitude_deg": -78.24153282018848,
      "height_km": 482.88097032481517,
      "semi_major_axis_km": 6857.246964021008,
      "eccentricity": 0.0005449,
      "inclination_deg": 98.0813,
      "raan_deg": 114.5157,
      "arg_perigee_deg": 100.7758,
      "mean_anomaly_deg": 259.4093,
      "mean_motion_rev_day": 15.28896462
    },
    {
      "epoch": "2026-03-30T00:21:22.701312Z",
      "apogee_km": 482.8464093192342,
      "perigee_km": 475.37351872278305,
      "latitude_deg": -4.928353241878482e-05,
      "longitude_deg": -78.24154019833796,
      "height_km": 482.8809575009169,
      "semi_major_axis_km": 6857.246964021008,
      "eccentricity": 0.00054489,
      "inclination_deg": 98.0813,
      "raan_deg": 114.5157,
      "arg_perigee_deg": 100.7758,
      "mean_anomaly_deg": 259.4093,
      "mean_motion_rev_day": 15.28896462
    },
    {
      "epoch": "2026-03-30T12:55:20.049600Z",
      "apogee_km": 482.7799677932253,
      "perigee_km": 475.28809701006503,
      "latitude_deg": -1.832712742609725e-06,
      "longitude_deg": 93.32153809569967,
      "height_km": 482.77609739954914,
      "semi_major_axis_km": 6857.171032401645,
      "eccentricity": 0.00054628,
      "inclination_deg": 98.0811,
      "raan_deg": 115.0838,
      "arg_perigee_deg": 100.2985,
      "mean_anomaly_deg": 259.8869,
      "mean_motion_rev_day": 15.28921857
    },
    {
      "epoch": "2026-03-30T19:12:18.436032Z",
      "apogee_km": 482.74166624789905,
      "perigee_km": 475.25148210215593,
      "latitude_deg": 1.4017028371096087e-06,
      "longitude_deg": -0.8953677816576945,
      "height_km": 482.7008952968459,
      "semi_major_axis_km": 6857.133574175027,
      "eccentricity": 0.00054616,
      "inclination_deg": 98.081,
      "raan_deg": 115.3682,
      "arg_perigee_deg": 99.7146,
      "mean_anomaly_deg": 260.4709,
      "mean_motion_rev_day": 15.28934385
    },
    {
      "epoch": "2026-03-31T12:28:58.110528Z",
      "apogee_km": 482.66083879998587,
      "perigee_km": 475.14305557984517,
      "latitude_deg": 1.5859413309063754e-05,
      "longitude_deg": 100.01095133170544,
      "height_km": 482.51037664151437,
      "semi_major_axis_km": 6857.038947189915,
      "eccentricity": 0.00054818,
      "inclination_deg": 98.0806,
      "raan_deg": 116.1494,
      "arg_perigee_deg": 98.1999,
      "mean_anomaly_deg": 261.9861,
      "mean_motion_rev_day": 15.28966034
    }
  ]
}